[{"OBJECT_NAME":"STARLINK-31857","OBJECT_ID":"2024-097J","EPOCH":"2025-10-18T21:13:14.219040","MEAN_MOTION":15.27580052,"ECCENTRICITY":2.36e-5,"INCLINATION":42.9987,"RA_OF_ASC_NODE":354.8396,"ARG_OF_PERICENTER":262.3203,"MEAN_ANOMALY":97.7621,"EPHEMERIS_TYPE":0,"CLASSIFICATION_TYPE":"U","NORAD_CAT_ID":59843,"ELEMENT_SET_NO":999,"REV_AT_EPOCH":8023,"BSTAR":1.9936057e-5,"MEAN_MOTION_DOT":2.87e-6,"MEAN_MOTION_DDOT":0},{"OBJECT_NAME":"STARLINK-31851","OBJECT_ID":"2024-097K","EPOCH":"2025-10-18T21:33:36.249408","MEAN_MOTION":15.2756917,"ECCENTRICITY":0.00020152,"INCLINATION":42.9969,"RA_OF_ASC_NODE":354.9538,"ARG_OF_PERICENTER":80.4895,"MEAN_ANOMALY":279.6184,"EPHEMERIS_TYPE":0,"CLASSIFICATION_TYPE":"U","NORAD_CAT_ID":59844,"ELEMENT_SET_NO":999,"REV_AT_EPOCH":8023,"BSTAR":0.00013419735,"MEAN_MOTION_DOT":3.431e-5,"MEAN_MOTION_DDOT":0},{"OBJECT_NAME":"STARLINK-31903","OBJECT_ID":"2024-097L","EPOCH":"2025-10-18T04:28:31.837440","MEAN_MOTION":15.27572851,"ECCENTRICITY":0.00012807,"INCLINATION":43.0013,"RA_OF_ASC_NODE":352.1377,"ARG_OF_PERICENTER":255.0409,"MEAN_ANOMALY":105.0301,"EPHEMERIS_TYPE":0,"CLASSIFICATION_TYPE":"U","NORAD_CAT_ID":59845,"ELEMENT_SET_NO":999,"REV_AT_EPOCH":8020,"BSTAR":8.400388e-6,"MEAN_MOTION_DOT":-3.1e-7,"MEAN_MOTION_DDOT":0},{"OBJECT_NAME":"STARLINK-31922","OBJECT_ID":"2024-097M","EPOCH":"2025-10-18T21:18:46.738944","MEAN_MOTION":15.27582752,"ECCENTRICITY":6.029e-5,"INCLINATION":43.0027,"RA_OF_ASC_NODE":354.8669,"ARG_OF_PERICENTER":289.0041,"MEAN_ANOMALY":71.0745,"EPHEMERIS_TYPE":0,"CLASSIFICATION_TYPE":"U","NORAD_CAT_ID":59846,"ELEMENT_SET_NO":999,"REV_AT_EPOCH":8023,"BSTAR":4.0114594e-5,"MEAN_MOTION_DOT":8.42e-6,"MEAN_MOTION_DDOT":0},{"OBJECT_NAME":"STARLINK-31889","OBJECT_ID":"2024-097N","EPOCH":"2025-10-18T21:04:11.639136","MEAN_MOTION":15.27588183,"ECCENTRICITY":0.00010118,"INCLINATION":43.0041,"RA_OF_ASC_NODE":355.6614,"ARG_OF_PERICENTER":291.9305,"MEAN_ANOMALY":68.1439,"EPHEMERIS_TYPE":0,"CLASSIFICATION_TYPE":"U","NORAD_CAT_ID":59847,"ELEMENT_SET_NO":999,"REV_AT_EPOCH":8022,"BSTAR":8.4595384e-5,"MEAN_MOTION_DOT":2.067e-5,"MEAN_MOTION_DDOT":0},{"OBJECT_NAME":"STARLINK-31859","OBJECT_ID":"2024-097P","EPOCH":"2025-10-18T20:19:19.561152","MEAN_MOTION":15.27586669,"ECCENTRICITY":0.00021058,"INCLINATION":43.0043,"RA_OF_ASC_NODE":348.4971,"ARG_OF_PERICENTER":284.5767,"MEAN_ANOMALY":75.4851,"EPHEMERIS_TYPE":0,"CLASSIFICATION_TYPE":"U","NORAD_CAT_ID":59848,"ELEMENT_SET_NO":999,"REV_AT_EPOCH":8030,"BSTAR":6.6799585e-5,"MEAN_MOTION_DOT":1.576e-5,"MEAN_MOTION_DDOT":0},{"OBJECT_NAME":"STARLINK-31895","OBJECT_ID":"2024-097Q","EPOCH":"2025-10-18T21:39:09.444096","MEAN_MOTION":15.27586764,"ECCENTRICITY":3.231e-5,"INCLINATION":43.004,"RA_OF_ASC_NODE":354.9835,"ARG_OF_PERICENTER":350.2761,"MEAN_ANOMALY":9.8085,"EPHEMERIS_TYPE":0,"CLASSIFICATION_TYPE":"U","NORAD_CAT_ID":59849,"ELEMENT_SET_NO":999,"REV_AT_EPOCH":8023,"BSTAR":-1.669574e-5,"MEAN_MOTION_DOT":-7.21e-6,"MEAN_MOTION_DDOT":0},{"OBJECT_NAME":"STARLINK-31899","OBJECT_ID":"2024-097R","EPOCH":"2025-10-18T21:44:41.661600","MEAN_MOTION":15.27580522,"ECCENTRICITY":0.00012562,"INCLINATION":43.0027,"RA_OF_ASC_NODE":355.0117,"ARG_OF_PERICENTER":301.1383,"MEAN_ANOMALY":58.9346,"EPHEMERIS_TYPE":0,"CLASSIFICATION_TYPE":"U","NORAD_CAT_ID":59850,"ELEMENT_SET_NO":999,"REV_AT_EPOCH":8023,"BSTAR":8.8770799e-5,"MEAN_MOTION_DOT":2.181e-5,"MEAN_MOTION_DDOT":0},{"OBJECT_NAME":"STARLINK-31896","OBJECT_ID":"2024-097S","EPOCH":"2025-10-18T13:59:27.623040","MEAN_MOTION":15.27584552,"ECCENTRICITY":0.00010265,"INCLINATION":43.0039,"RA_OF_ASC_NODE":356.8862,"ARG_OF_PERICENTER":260.6325,"MEAN_ANOMALY":99.4411,"EPHEMERIS_TYPE":0,"CLASSIFICATION_TYPE":"U","NORAD_CAT_ID":59851,"ELEMENT_SET_NO":999,"REV_AT_EPOCH":8018,"BSTAR":8.0751732e-5,"MEAN_MOTION_DOT":1.961e-5,"MEAN_MOTION_DDOT":0},{"OBJECT_NAME":"STARLINK-31892","OBJECT_ID":"2024-097U","EPOCH":"2025-10-19T00:00:02.999808","MEAN_MOTION":15.2756047,"ECCENTRICITY":0.00016139,"INCLINATION":43.002,"RA_OF_ASC_NODE":354.7676,"ARG_OF_PERICENTER":263.3016,"MEAN_ANOMALY":134.0253,"EPHEMERIS_TYPE":0,"CLASSIFICATION_TYPE":"U","NORAD_CAT_ID":59853,"ELEMENT_SET_NO":999,"REV_AT_EPOCH":588,"BSTAR":0.002594651,"MEAN_MOTION_DOT":0.00071792,"MEAN_MOTION_DDOT":0},{"OBJECT_NAME":"STARLINK-31891","OBJECT_ID":"2024-097V","EPOCH":"2025-10-18T20:47:32.891424","MEAN_MOTION":15.27577681,"ECCENTRICITY":7.598e-5,"INCLINATION":43.0011,"RA_OF_ASC_NODE":355.5749,"ARG_OF_PERICENTER":278.5034,"MEAN_ANOMALY":81.5731,"EPHEMERIS_TYPE":0,"CLASSIFICATION_TYPE":"U","NORAD_CAT_ID":59854,"ELEMENT_SET_NO":999,"REV_AT_EPOCH":8022,"BSTAR":4.5950795e-5,"MEAN_MOTION_DOT":1.003e-5,"MEAN_MOTION_DDOT":0},{"OBJECT_NAME":"STARLINK-31882","OBJECT_ID":"2024-097W","EPOCH":"2025-10-18T04:32:13.392096","MEAN_MOTION":15.27580636,"ECCENTRICITY":6.303e-5,"INCLINATION":43.0021,"RA_OF_ASC_NODE":352.1498,"ARG_OF_PERICENTER":229.385,"MEAN_ANOMALY":130.6947,"EPHEMERIS_TYPE":0,"CLASSIFICATION_TYPE":"U","NORAD_CAT_ID":59855,"ELEMENT_SET_NO":999,"REV_AT_EPOCH":8020,"BSTAR":6.1008374e-5,"MEAN_MOTION_DOT":1.417e-5,"MEAN_MOTION_DDOT":0},{"OBJECT_NAME":"STARLINK-31691","OBJECT_ID":"2024-097X","EPOCH":"2025-10-18T21:07:40.238112","MEAN_MOTION":15.27588854,"ECCENTRICITY":9.917e-5,"INCLINATION":43.0033,"RA_OF_ASC_NODE":354.809,"ARG_OF_PERICENTER":271.2915,"MEAN_ANOMALY":88.7823,"EPHEMERIS_TYPE":0,"CLASSIFICATION_TYPE":"U","NORAD_CAT_ID":59856,"ELEMENT_SET_NO":999,"REV_AT_EPOCH":8023,"BSTAR":8.986759e-5,"MEAN_MOTION_DOT":2.212e-5,"MEAN_MOTION_DDOT":0},{"OBJECT_NAME":"STARLINK-31569","OBJECT_ID":"2024-097Y","EPOCH":"2025-10-18T11:00:23.937696","MEAN_MOTION":15.27586681,"ECCENTRICITY":0.00014949,"INCLINATION":43.0032,"RA_OF_ASC_NODE":357.6728,"ARG_OF_PERICENTER":261.01,"MEAN_ANOMALY":99.0583,"EPHEMERIS_TYPE":0,"CLASSIFICATION_TYPE":"U","NORAD_CAT_ID":59857,"ELEMENT_SET_NO":999,"REV_AT_EPOCH":8016,"BSTAR":-7.062852e-6,"MEAN_MOTION_DOT":-4.57e-6,"MEAN_MOTION_DDOT":0},{"OBJECT_NAME":"STARLINK-31654","OBJECT_ID":"2024-098A","EPOCH":"2025-10-18T21:02:52.598688","MEAN_MOTION":15.2757327,"ECCENTRICITY":5.419e-5,"INCLINATION":43.0055,"RA_OF_ASC_NODE":351.4509,"ARG_OF_PERICENTER":280.2578,"MEAN_ANOMALY":79.8212,"EPHEMERIS_TYPE":0,"CLASSIFICATION_TYPE":"U","NORAD_CAT_ID":59858,"ELEMENT_SET_NO":999,"REV_AT_EPOCH":8023,"BSTAR":4.1852697e-5,"MEAN_MOTION_DOT":8.9e-6,"MEAN_MOTION_DDOT":0},{"OBJECT_NAME":"STARLINK-31442","OBJECT_ID":"2024-098B","EPOCH":"2025-10-18T13:23:08.818080","MEAN_MOTION":15.27582032,"ECCENTRICITY":3.318e-5,"INCLINATION":42.9986,"RA_OF_ASC_NODE":4.5824,"ARG_OF_PERICENTER":313.6027,"MEAN_ANOMALY":46.4797,"EPHEMERIS_TYPE":0,"CLASSIFICATION_TYPE":"U","NORAD_CAT_ID":59859,"ELEMENT_SET_NO":999,"REV_AT_EPOCH":8006,"BSTAR":8.5817732e-5,"MEAN_MOTION_DOT":2.101e-5,"MEAN_MOTION_DDOT":0}]
