STARLINK-31857          
1 59843U 24097J   25291.88419235  .00000287  00000+0  19936-4 0  9998
2 59843  42.9987 354.8396 0000236 262.3203  97.7621 15.27580052 80237
STARLINK-31851          
1 59844U 24097K   25291.89833622  .00003431  00000+0  13420-3 0  9995
2 59844  42.9969 354.9538 0002015  80.4895 279.6184 15.27569170 80233
STARLINK-31903          
1 59845U 24097L   25291.18647960 -.00000031  00000+0  84004-5 0  9998
2 59845  43.0013 352.1377 0001280 255.0409 105.0301 15.27572851 80201
STARLINK-31922          
1 59846U 24097M   25291.88804096  .00000842  00000+0  40115-4 0  9994
2 59846  43.0027 354.8669 0000602 289.0041  71.0745 15.27582752 80234
STARLINK-31889          
1 59847U 24097N   25291.87791249  .00002067  00000+0  84595-4 0  9990
2 59847  43.0041 355.6614 0001011 291.9305  68.1439 15.27588183 80220
STARLINK-31859          
1 59848U 24097P   25291.84675418  .00001576  00000+0  66800-4 0  9990
2 59848  43.0043 348.4971 0002105 284.5767  75.4851 15.27586669 80309
STARLINK-31895          
1 59849U 24097Q   25291.90219264 -.00000721  00000+0 -16696-4 0  9992
2 59849  43.0040 354.9835 0000323 350.2761   9.8085 15.27586764 80231
STARLINK-31899          
1 59850U 24097R   25291.90603775  .00002181  00000+0  88771-4 0  9991
2 59850  43.0027 355.0117 0001256 301.1383  58.9346 15.27580522 80235
STARLINK-31896          
1 59851U 24097S   25291.58295860  .00001961  00000+0  80752-4 0  9994
2 59851  43.0039 356.8862 0001026 260.6325  99.4411 15.27584552 80189
STARLINK-31892          
1 59853U 24097U   25292.00003472  .00071792  00000+0  25947-2 0  9992
2 59853  43.0020 354.7676 0001613 263.3016 134.0253 15.27560470  5887
STARLINK-31891          
1 59854U 24097V   25291.86635291  .00001003  00000+0  45951-4 0  9993
2 59854  43.0011 355.5749 0000759 278.5034  81.5731 15.27577681 80226
STARLINK-31882          
1 59855U 24097W   25291.18904389  .00001417  00000+0  61008-4 0  9996
2 59855  43.0021 352.1498 0000630 229.3850 130.6947 15.27580636 80207
STARLINK-31691          
1 59856U 24097X   25291.88032683  .00002212  00000+0  89868-4 0  9991
2 59856  43.0033 354.8090 0000991 271.2915  88.7823 15.27588854 80235
STARLINK-31569          
1 59857U 24097Y   25291.45861039 -.00000457  00000+0 -70629-5 0  9997
2 59857  43.0032 357.6728 0001494 261.0100  99.0583 15.27586681 80162
STARLINK-31654          
1 59858U 24098A   25291.87699767  .00000890  00000+0  41853-4 0  9997
2 59858  43.0055 351.4509 0000541 280.2578  79.8212 15.27573270 80234
STARLINK-31442          
1 59859U 24098B   25291.55774095  .00002101  00000+0  85818-4 0  9997
2 59859  42.9986   4.5824 0000331 313.6027  46.4797 15.27582032 80064
